[{"OBJECT_NAME":"STARLINK-5929","OBJECT_ID":"2023-037AX","EPOCH":"2026-03-09T21:22:57.659232","MEAN_MOTION":14.98334627,"ECCENTRICITY":0.00025567,"INCLINATION":69.9984,"RA_OF_ASC_NODE":263.9337,"ARG_OF_PERICENTER":270.8446,"MEAN_ANOMALY":89.2421,"EPHEMERIS_TYPE":0,"CLASSIFICATION_TYPE":"U","NORAD_CAT_ID":55959,"ELEMENT_SET_NO":999,"REV_AT_EPOCH":16450,"BSTAR":-7.0636574e-5,"MEAN_MOTION_DOT":-9.36e-6,"MEAN_MOTION_DDOT":0},{"OBJECT_NAME":"SITRO-AIS 18","OBJECT_ID":"2024-199BH","EPOCH":"2026-03-09T22:56:51.354816","MEAN_MOTION":14.97350577,"ECCENTRICITY":0.00069154,"INCLINATION":97.331,"RA_OF_ASC_NODE":274.6581,"ARG_OF_PERICENTER":53.7115,"MEAN_ANOMALY":306.4746,"EPHEMERIS_TYPE":0,"CLASSIFICATION_TYPE":"U","NORAD_CAT_ID":61790,"ELEMENT_SET_NO":999,"REV_AT_EPOCH":11718,"BSTAR":0.00032194999,"MEAN_MOTION_DOT":3.687e-5,"MEAN_MOTION_DDOT":0}]
